NORAD_CAT_ID,OBJECT_NAME,OBJECT_TYPE,EPOCH,MEAN_MOTION,ECCENTRICITY,INCLINATION,RA_OF_ASC_NODE,ARG_OF_PERICENTER,MEAN_ANOMALY,BSTAR,MEAN_MOTION_DOT,MEAN_MOTION_DDOT,TLE_LINE0,TLE_LINE1,TLE_LINE2,SEMIMAJOR_AXIS,PERIOD,APOGEE,PERIGEE,DECAYED
53426.0,STARLINK-4558,PAYLOAD,2023-01-26 13:35:27,15.08842845,0.0001057,53.2183,173.5047,91.9119,268.1994,7.5589e-05,9.16e-06,0.0,0 STARLINK-4558,1 53426U 22097AQ  23026.56629137  .00000916  00000-0  75589-4 0  9996,2 53426  53.2183 173.5047 0001057  91.9119 268.1994 15.08842845 26961,6917.871999999999,95.437,540.4680000000001,539.005,0.0
53426.0,STARLINK-4558,PAYLOAD,2023-01-26 15:10:50,15.08845065,0.0001107,53.2182,173.2072,92.5809,267.531,0.00010247,1.344e-05,0.0,0 STARLINK-4558,1 53426U 22097AQ  23026.63252921  .00001344  00000-0  10247-3 0  9992,2 53426  53.2182 173.2072 0001107  92.5809 267.5310 15.08845065 26494,6917.865,95.437,540.496,538.964,0.0
53426.0,STARLINK-4558,PAYLOAD,2023-01-27 13:26:15,15.08833005,0.0001210999999999,53.2187,169.0439,95.7554,264.3577,6.1652e-05,6.93e-06,0.0,0 STARLINK-4558,1 53426U 22097AQ  23027.55989890  .00000693  00000-0  61652-4 0  9999,2 53426  53.2187 169.0439 0001211  95.7554 264.3577 15.08833005 27118,6917.901999999999,95.438,540.605,538.929,0.0
53426.0,STARLINK-4558,PAYLOAD,2023-01-27 15:01:38,15.08833675,0.0001186,53.2177,168.74599999999998,98.9152,261.1974,6.4687e-05,7.42e-06,0.0,0 STARLINK-4558,1 53426U 22097AQ  23027.62613810  .00000742  00000-0  64687-4 0  9999,2 53426  53.2177 168.7460 0001186  98.9152 261.1974 15.08833675 26643,6917.9,95.438,540.585,538.944,0.0
53426.0,STARLINK-4558,PAYLOAD,2023-01-27 16:37:01,15.08836574,0.0001127,53.2181,168.4488,87.8367,272.2754,6.1331e-05,6.88e-06,0.0,0 STARLINK-4558,1 53426U 22097AQ  23027.69237695  .00000688  00000-0  61331-4 0  9991,2 53426  53.2181 168.4488 0001127  87.8367 272.2754 15.08836574 27130,6917.891,95.438,540.536,538.976,0.0
53426.0,STARLINK-4558,PAYLOAD,2023-01-28 13:17:01,15.08846057,0.0001408,53.219,164.5839,91.3277,268.7877,-3.8453e-05,-9e-06,0.0,0 STARLINK-4558,1 53426U 22097AQ  23028.55349520 -.00000900  00000-0 -38453-4 0  9996,2 53426  53.2190 164.5839 0001408  91.3277 268.7877 15.08846057 26782,6917.862,95.437,540.701,538.753,0.0
53426.0,STARLINK-4558,PAYLOAD,2023-01-28 18:03:11,15.08846084,0.0001279,53.2186,163.6913,94.0284,266.0855,5.3155e-05,5.58e-06,0.0,0 STARLINK-4558,1 53426U 22097AQ  23028.75221217  .00000558  00000-0  53155-4 0  9993,2 53426  53.2186 163.6913 0001279  94.0284 266.0855 15.08846084 27298,6917.862,95.437,540.612,538.842,0.0
53426.0,STARLINK-4558,PAYLOAD,2023-01-29 02:00:07,15.08836716,0.0001248,53.2194,162.2051,74.9759,285.1371,1.7081e-05,-1.6e-07,0.0,0 STARLINK-4558,1 53426U 22097AQ  23029.08341948 -.00000016  00000-0  17081-4 0  9992,2 53426  53.2194 162.2051 0001248  74.9759 285.1371 15.08836716 26863,6917.89,95.438,540.619,538.892,0.0
53426.0,STARLINK-4558,PAYLOAD,2023-01-29 17:53:58,15.08835239,0.0001175,53.2183,159.232,72.1307,287.9813,4.7721e-05,4.72e-06,0.0,0 STARLINK-4558,1 53426U 22097AQ  23029.74582121  .00000472  00000-0  47721-4 0  9994,2 53426  53.2183 159.2320 0001175  72.1307 287.9813 15.08835239 27449,6917.895,95.438,540.573,538.947,0.0
53426.0,STARLINK-4558,PAYLOAD,2023-01-30 08:12:27,15.08839372,0.0001239,53.2187,156.5552,74.6458,285.4671,-1.2025e-05,-4.79e-06,0.0,0 STARLINK-4558,1 53426U 22097AQ  23030.34198231 -.00000479  00000-0 -12025-4 0  9995,2 53426  53.2187 156.5552 0001239  74.6458 285.4671 15.08839372 27059,6917.882,95.438,540.604,538.89,0.0
53426.0,STARLINK-4558,PAYLOAD,2023-01-31 01:41:41,15.08846977,0.0001165,53.2198,153.2854,80.1781,279.9343,1.8221e-05,2e-08,0.0,0 STARLINK-4558,1 53426U 22097AQ  23031.07061412  .00000002  00000-0  18221-4 0  9990,2 53426  53.2198 153.2854 0001165  80.1781 279.9343 15.08846977 27164,6917.859,95.437,540.53,538.918,0.0
53426.0,STARLINK-4558,PAYLOAD,2023-01-31 12:49:23,15.08838366,0.0001144,53.218,151.2021,97.3313,262.7809,0.00012738,1.74e-05,0.0,0 STARLINK-4558,1 53426U 22097AQ  23031.53429593  .00001740  00000-0  12738-3 0  9995,2 53426  53.2180 151.2021 0001144  97.3313 262.7809 15.08838366 27718,6917.885,95.438,540.542,538.959,0.0
53426.0,STARLINK-4558,PAYLOAD,2023-01-31 17:35:32,15.08847667,0.0001179,53.218,150.3087,107.5797,252.5324,6.1029e-05,6.84e-06,0.0,0 STARLINK-4558,1 53426U 22097AQ  23031.73301130  .00000684  00000-0  61029-4 0  9997,2 53426  53.2180 150.3087 0001179 107.5797 252.5324 15.08847667 27744,6917.857,95.437,540.538,538.906,0.0
53426.0,STARLINK-4558,PAYLOAD,2023-02-01 11:04:47,15.08839257,0.0001447,53.2181,147.0369,115.1998,244.9145,1.023e-05,-1.25e-06,0.0,0 STARLINK-4558,1 53426U 22097AQ  23032.46165719 -.00000125  00000-0  10230-4 0  9998,2 53426  53.2181 147.0369 0001447 115.1998 244.9145 15.08839257 27378,6917.883,95.438,540.749,538.747,0.0
53426.0,STARLINK-4558,PAYLOAD,2023-02-01 12:40:10,15.088412,0.0001238,53.2185,146.7401,106.9638,253.149,-4.803e-06,-3.64e-06,0.0,0 STARLINK-4558,1 53426U 22097AQ  23032.52789666 -.00000364  00000-0 -48030-5 0  9994,2 53426  53.2185 146.7401 0001238 106.9638 253.1490 15.08841200 27862,6917.877,95.437,540.598,538.885,0.0
53426.0,STARLINK-4558,PAYLOAD,2023-02-02 12:30:57,15.08835715,0.0001213,53.2178,142.2823,101.8592,258.2537,-8.2738e-06,-4.19e-06,0.0,0 STARLINK-4558,1 53426U 22097AQ  23033.52150220 -.00000419  00000-0 -82738-5 0  9997,2 53426  53.2178 142.2823 0001213 101.8592 258.2537 15.08835715 28019,6917.893,95.438,540.598,538.919,0.0
53426.0,STARLINK-4558,PAYLOAD,2023-02-02 23:38:39,15.08840962,0.0001073,53.2179,140.2019,95.6948,264.4166,-4.7876e-05,-1.05e-05,0.0,0 STARLINK-4558,1 53426U 22097AQ  23033.98518016 -.00001050  00000-0 -47876-4 0  9993,2 53426  53.2179 140.2019 0001073  95.6948 264.4166 15.08840962 27605,6917.877,95.437,540.485,539.0,0.0
53426.0,STARLINK-4558,PAYLOAD,2023-02-03 07:35:36,15.08829249,0.0001248,53.2178,138.7152,84.6202,275.4933,-6.7461e-05,-1.361e-05,0.0,0 STARLINK-4558,1 53426U 22097AQ  23034.31639101 -.00001361  00000-0 -67461-4 0  9997,2 53426  53.2178 138.7152 0001248  84.6202 275.4933 15.08829249 27653,6917.913,95.438,540.642,538.915,0.0
53426.0,STARLINK-4558,PAYLOAD,2023-02-03 09:10:59,15.08828512,0.0001209,53.2177,138.418,87.0218,273.0912,-7.2193e-05,-1.436e-05,0.0,0 STARLINK-4558,1 53426U 22097AQ  23034.38263195 -.00001436  00000-0 -72193-4 0  9991,2 53426  53.2177 138.4180 0001209  87.0218 273.0912 15.08828512 28149,6917.916,95.438,540.617,538.944,0.0
53426.0,STARLINK-4558,PAYLOAD,2023-02-04 07:26:22,15.08837533,0.0001157,53.2169,134.2565,93.7194,266.3931,8.5726e-05,1.077e-05,0.0,0 STARLINK-4558,1 53426U 22097AQ  23035.30998522  .00001077  00000-0  85726-4 0  9998,2 53426  53.2169 134.2565 0001157  93.7194 266.3931 15.08837533 27801,6917.888,95.438,540.553,538.953,0.0
53426.0,STARLINK-4558,PAYLOAD,2023-02-04 13:47:54,15.08845434,0.0001396,53.2173,133.0669,102.8635,257.2514,0.00015325,2.152e-05,0.0,0 STARLINK-4558,1 53426U 22097AQ  23035.57493806  .00002152  00000-0  15325-3 0  9994,2 53426  53.2173 133.0669 0001396 102.8635 257.2514 15.08845434 27844,6917.864,95.437,540.695,538.763,0.0
53426.0,STARLINK-4558,PAYLOAD,2023-02-05 13:38:41,15.08846354,0.00012,53.2181,128.6052,88.4532,271.6598,0.00011097,1.479e-05,0.0,0 STARLINK-4558,1 53426U 22097AQ  23036.56853817  .00001479  00000-0  11097-3 0  9999,2 53426  53.2181 128.6052 0001200  88.4532 271.6598 15.08846354 28472,6917.861,95.437,540.556,538.896,0.0
53426.0,STARLINK-4558,PAYLOAD,2023-02-05 15:14:04,15.08847738,0.0001385,53.2185,128.3044,93.161,266.9541,0.00015042,2.107e-05,0.0,0 STARLINK-4558,1 53426U 22097AQ  23036.63477570  .00002107  00000-0  15042-3 0  9998,2 53426  53.2185 128.3044 0001385  93.1610 266.9541 15.08847738 28009,6917.857,95.437,540.68,538.764,0.0
53426.0,STARLINK-4558,PAYLOAD,2023-02-06 05:32:34,15.08835514,0.0001533,53.2181,125.6332,78.3012,281.8152,-1.5016e-05,-5.27e-06,0.0,0 STARLINK-4558,1 53426U 22097AQ  23037.23095056 -.00000527  00000-0 -15016-4 0  9998,2 53426  53.2181 125.6332 0001533  78.3012 281.8152 15.08835514 28093,6917.894,95.438,540.82,538.699,0.0
53426.0,STARLINK-4558,PAYLOAD,2023-02-06 11:54:06,15.08838498,0.0001216,53.2174,124.4428,83.1692,276.9438,-4.2117e-05,-9.58e-06,0.0,0 STARLINK-4558,1 53426U 22097AQ  23037.49590897 -.00000958  00000-0 -42117-4 0  9999,2 53426  53.2174 124.4428 0001216  83.1692 276.9438 15.08838498 28618,6917.885,95.438,540.591,538.909,0.0
53426.0,STARLINK-4558,PAYLOAD,2023-02-07 05:23:20,15.08845547,0.0001322,53.2176,121.1719,80.1143,279.9998,7.1469e-05,8.5e-06,0.0,0 STARLINK-4558,1 53426U 22097AQ  23038.22453967  .00000850  00000-0  71469-4 0  9998,2 53426  53.2176 121.1719 0001322  80.1143 279.9998 15.08845547 28249,6917.863,95.437,540.643,538.814,0.0
53426.0,STARLINK-4558,PAYLOAD,2023-02-07 11:44:51,15.08856356,0.0001219,53.2173,119.9822,109.2522,250.8602,0.00010919,1.451e-05,0.0,0 STARLINK-4558,1 53426U 22097AQ  23038.48948919  .00001451  00000-0  10919-3 0  9992,2 53426  53.2173 119.9822 0001219 109.2522 250.8602 15.08856356 28289,6917.83,95.437,540.539,538.852,0.0
53426.0,STARLINK-4558,PAYLOAD,2023-02-08 08:24:53,15.08836575,0.0001134,53.2179,116.1177,90.6749,269.4374,0.00013182,1.811e-05,0.0,0 STARLINK-4558,1 53426U 22097AQ  23039.35062166  .00001811  00000-0  13182-3 0  9995,2 53426  53.2179 116.1177 0001134  90.6749 269.4374 15.08836575 28415,6917.891,95.438,540.54,538.971,0.0
53426.0,STARLINK-4558,PAYLOAD,2023-02-08 11:35:39,15.08844062,0.0001188,53.2186,115.5206,101.1437,258.9689,8.2538e-05,1.026e-05,0.0,0 STARLINK-4558,1 53426U 22097AQ  23039.48309889  .00001026  00000-0  82538-4 0  9995,2 53426  53.2186 115.5206 0001188 101.1437 258.9689 15.08844062 28917,6917.868,95.437,540.555,538.911,0.0
53426.0,STARLINK-4558,PAYLOAD,2023-02-08 14:46:25,15.0884722,0.000133,53.2175,114.9248,111.2797,248.8337,0.00012552,1.711e-05,0.0,0 STARLINK-4558,1 53426U 22097AQ  23039.61557719  .00001711  00000-0  12552-3 0  9996,2 53426  53.2175 114.9248 0001330 111.2797 248.8337 15.08847220 28450,6917.858,95.437,540.643,538.803,0.0
